businessid,name,address,city,state,zip
8166,Borun Crystal,4500 W Charlston Blvd,Las Vegas,NV,89102
8264,Belle Bellina,3905 NW 107th Ave  107 ,Miami,FL,33178
8272,Food Corner Kabob House  Silver Spring,8401 Colesville Rd,Silver Spring,MD,20910
9087,Ultraprint Corporation,80 Rockwood Place,Rochester,NY,14610
9090,VJAG Laundry  Dry Cleaners,604 S Oyster Bay Rd,Hicksville,NY,11801
9175,Far East Taco Grill  Florida Ave,635 Florida Avenue NE,Washington,DC,20002
9288,Apple 18 Cleaner,46 13 188th St,Flushing,NY,11358
9291,Fishing Boat Chinese Cuisine,516 E Live Oak Ave,Arcadia,CA,91006
9310,Sinbad Mediterranean Food  Bakery,3250 Duke Street,Alexandria,VA,22314
9345,Brauns Diamonds Direct,3874 South Park Avenue,Buffalo,NY,14219
9354,Minerva Express,560 North Frederick Ave,Gaithersburg,MD,20877
9383,Hot Pot House,136 21 41St Ave Basement,Flushing,NY,11355
9384,Chasers,2501 Fleet St,Baltimore,MD,21224
9428,Yichi Mi,708 E Las Tunas Dr  D,San Gabriel,CA,91776
9459,Chaat N Roll  Alderwood Mall,3000 184th St Sw,Lynnwood,WA,98037
9512,Baymont Inn  Suites Anaheim,727 S Beach Blvd,Anaheim,CA,92804
9514,Nemoe s Tavern and Grill,6025 Peachtree Parkway,Norcross,GA,30092
9528,Thai Sushi 101,14220 Oakhill Park Ln,Huntersville,NC,28078
9563,Papasan Rolls and Bowls,3353 Walnut Ave,Fremont,CA,94538
9631,Always Rejoice Auto Rental,18470 Colima Rd,Rowland Heights,CA,91748
9700,La Humita,3466 N Pulaski Ave,Chicago,IL,60641
9730,5 Elements Spa,6819 Pittsford Palmyra Rd,Fairport,NY,14450
9795,El Taco Veloz  Gainesville,950 Jesse Jewell Pkwy,Gainesville,GA,30501
9797,El Taco Veloz  Chamblee Dunwoody Road,3245 Chamblee Dunwoody Rd Suite C,Atlanta,GA,30341
9921,Kangchen Indian Cuisine,7475 Mineral Point Rd,Madison,WI,53717
9930,Baba Pita Restaurant,2343 W Taylor St,Chicago,IL,60612
9964,El Michoacano Mexican Restaurant,2701 SH 71 E  Austin,Del Valle,TX,78617
9969,Lovash Indian Restaurant  Bar,236 South St,Philadelphia,PA,19147
9970,Fillmore Pizza,923 S Walter Reed Dr,Arlington,VA,22204
9971,Boba Bear,18414 E Colima Rd Unit R,Rowland Heights,CA,91748
9987,Kublai Khan Crazy Mongolian Stir Fry,20940 Katy Fwy,Katy,TX,77449
10064,Shining Express San Diego Branch,7297 Ronson Rd,San Diego,CA,92111
10066,Spring Bamboo Seafood House,1271 S Baldwin Ave,Arcadia,CA,91007
10116,Bollywood Spice Indian Cuisine,25000 US Hwy 19 N,Clearwater,FL,33763
10128,Sivas Tavern,780 Cobb Pl Blvd NW,Kennesaw,GA,30144
10129,Sivas Express,19 Hurt Plaza SE,Atlanta,GA,30303
10148,Buen Provecho,855 Fulton St,New Orleans,LA,70119
10159,Poshe Nails  Skin Care,4411 Mercury St  109,San Diego,CA,92111
10208,Swaad Palace,1548 First St SW,Washington,DC,20024
10211,Los Parceros,106 North Olive Ave,West Palm Beach,FL,33401
10213,Swiss Park Bar  Grille,5911 Mowry,Newark,CA,94560
10254,Bistro 1001,1001 Okeechobee Blvd,West Palm Beach,FL,33401
10256,American English Kitchen and Bar,1900 Harrison St,Hollywood,FL,33020
10258,Ban Ban Asian bistro,1533 Old York Rd,Abington,PA,19001
10259,Cliff s Rendezvous,313 E Main Street,Riverhead,NY,11901
10263,Silvers Delight,2879 East Point St,Atlanta,GA,30344
10264,Roger Miller Restaurant,941 Bonifant Street,Silver Spring,MD,20910
10265,First Break Cafe,46970 Community Plaza,Sterling,VA,20164
10266,Biryani,11775 Northfall Ln,Alpharetta,GA,30009
10267,India Chef Restaurant,720 Holcomb Bridge Rd,Roswell,GA,30076
10268,Panahar Bangladeshi Cuisine,3375 Buford Hwy Ne Suite 1060,Atlanta,GA,30329
10269,Jumbo Jumbo Cafe  College Park,3711 D Campus Dr,College Park,MD,20740
10270,The Liberty Tree,1016 H Street Ne,Washington,DC,20002
10271,Olive Mediterranean Grill,755 Lawrenceville Suwanee Road,Lawrenceville,GA,30043
10272,Cafe Efendi,480 N Main Street,Alpharetta,GA,30009
10288,3 Natives,1200 Yamato Rd,Boca Raton,FL,33431
10292,Ke Zhang,45 72 Kissena Blvd,Flushing,NY,11355
10293,shanghai Noble food restaurant,18977 Colima Road,Rowland Heights,CA,91748
10294,Influence Spa,3630 Peachtree Pkwy Suite 702,Suwanee,GA,30024
10307,Paradise Biryani Pointe,1540 Avenue Pl,Atlanta,GA,30329
10308,Tavernpointe,1545 Peachtree St Suite 101,Atlanta,GA,30309
10309,Lakewood Diner,2885 Lakewood Ave Sw,Atlanta,GA,30315
10310,Olees Kitchen,8465 Holcomb Bridge Rd,Alpharetta,GA,30022
10311,Arepita Cafe,11105 State Bridge Rd Ste 160,Alpharetta,GA,30022
10315,Tartufo,4910 Wisconsin Ave Nw,Washington,DC,20016
10316,Spring Garden,4916 Wisconsin Ave Nw,Washington,DC,20016
10317,Arosto Pizza,2676J Avenir Pl,Vienna,VA,22180
10318,Chicken Boxx,2303 Huntington Ave,Alexandria,VA,22303
10319,Monaco Deli,10123 Colvin Run Rd Unit C,Great Falls,VA,22066
10320,Celines Boutique LLC,Jeffwood Plaza 816 Route 82,Hopewell Junction,NY,12533
10321,Gen Hibachi  Asian Cuisine,16 Chestnut Ridge Road,Montvale,NJ,7645
10329,Tacos  Beer,3900 Paradise Rd Ste A,Las Vegas,NV,89169
10331,Casa Lola Kitchen de Mexico,16305 Sw Barrows Rd,Beaverton,OR,97007
10352,IREH KOREAN FASHION COSMETIC,3400 S JONES BLVD  14,Las Vegas,NV,89146
10353,Rock N Taco  Sandy Springs,8540 Roswell Rd,Atlanta,GA,30350
10357,Shangrila Nepalese and Indian Restaurant,7345 Wisconsin Ave,Bethesda,MD,20814
10358,Manchuria Garden,6180 Mcdonough Drive,Norcross,GA,30093
10359,Tanad Thai Cuisine,4912 Wisconsine Avenue Nw,Washington,DC,20016
10360,Satay Club,4654 Wisconsin Ave Nw,Washington,DC,20016
10361,Bobs Bakery,313 N Washington St ,Rockville,MD,20850
10362,Pomodoro Dulles,45591 Dulles Eastern Plaza  191,Sterling,VA,20166
10363,JM BBQ House,2180 Pleasant Hill Rd,Duluth,GA,30096
10364,Dogwood Pizza,850 Dogwood Rd,Lawrenceville,GA,30044
10365,Twisted Taco Alpharetta,5815 Windward Parkway Suite 210,Alpharetta,GA,30005
10366,Toppings Pizza Lounge,495 Whitehall St SW,Atlanta,GA,30303
10367,Coconut Grill,4181 Steve Reynolds Blvd,Norcross,GA,30093
10368,Chava Juice Bar,3 Forest Ave ,Ambler,PA,19002
10369,SPA PALACE LA,620 S Union Ave,Los Angeles,CA,90017
10372,INZO Italian Kitchen  Roanoke,101 S Oak St,Roanoke,TX,76262
10373,INZO Italian Kitchen  Fort Worth,2747 S Hulen St Fort Worth,Fort Worth,TX,76109
10381,Farmer s Keep,10 S 20Th Street,Philadelphia,PA,19103
10386,Shunju Restaurant,16 Beechwood Rd,Summit,NJ,7901
10392,Neighborhoods Coffee  Crepes,96 Peterborough St,Boston,MA,2215
10401,Our Passion at the Trio,2881 East Commercial Blvd,Fort Lauderdale,FL,33308
10402,Lunch Box Cafe,4700 Schaefer Hwy Suite 160,Dearborn,MI,48126
10403,COZY CORNER Family Restaurant,1700 South Missouri Ave,Clearwater,FL,33756
10404,Brome Burger,22062 Michigan Ave,Dearborn,MI,48124
10405,The Wild Tomato Pizzeria  Catering,4315 Jonestown Road,Harrisburg,PA,17109
10406,Kirk s Steakburgers Campbell,2388 S Bascom Ave,Campbell,CA,95008
10407,Deluxe Eatery  Drinkery,71 E San Fernando St ,San Jose,CA,95113
10412,JOY REFLEXOLOGY,300 E Colorado Blvd  143,Pasadena,CA,91101
10413,Qbedding (New York),4147 Main St,Flushing,NY,11355
10415,Lao Sze Chuan,4832 N Broadway St,Chicago,IL,60640
10565,RJ s Sports Pub,7886 Cincinnati Dayton Rd,West Chester,OH,45069
10566,Garden Delights Nursery,12845 State Route 108,Altamont,TN,37301
10567,Matteos Trattoria,88 Mineola Ave,Roslyn Heights,NY,11577
10568,Las Palmeras Restaurante,2500 Sw 107Th Ave Ste 1,Miami,FL,33165
10570,Silk Street Restaurant,6600 W 120th Ave Ste J,Broomfield,CO,80020
10571,Freshbox McDowell Mountain,10101 E Bell Rd Suite 114,Scottsdale,AZ,85260
10572,Freshbox Grayhawk,20831 N Scottsdale Rd Suite 115,Scottsdale,AZ,85255
10573,Chi Pan Asian,4856 New Broad St,Orlando,FL,32814
10574,Sake Sushi,2700 Posner Blvd,Davenport,FL,33837
10575,Lebanese Taverna,115 A Gibbs St,Rockville,MD,20847
10576,Thai Cuisine Restaurant,499 Central Ave,Dover,NH,3820
10577,Golden Palace Chinese Restaurant,400 US Highway 206,Bedminster,NJ,7921
10578,Brew Brew Coffee Lounge,3832 W Diversey Ave,Chicago,IL,60647
10579,Grill of India  Cincinnati,354 Ludlow Ave,Cincinnati,OH,45220
10580,Ipanema Brazilian Steak House  Ocala,2023 S Pine Ave,Ocala,FL,34471
10581,Uncle Joe s Hong Kong Bistro,891 14Th St Unit 100,Denver,CO,80202
10583,Vegas KTV  Fine Dining,3400 S JONES BLVD STE 5B,Las Vegas,NV,89146
10584,Health King,642 Lexington Ave,New York,NY,10022
10585,Silk Road Asian Kitchen,872 Buford Rd,Cumming,GA,30041
10586,Dynasty Buffet,1656 NE Miami Gardens Dr,Miami,FL,33179
10587,Ciros,301 Buckelew Ave ,Monroe Township,NJ,8831
10588,Vietnam Bistro,2221 Rt 9 N,Howell,NJ,7731
10597,Lucy Blue  7th St,35 E 7Th St,Cincinnati,OH,45202
10598,Lucy Blue  Main St,1126 Main St,Cincinnati,OH,45202
10599,Swad Indian Restaurant,1810 W Galbraith Rd,Cincinnati,OH,45239
10606,Rhinos Frozen Yogurt Soft Serve,10415 Kenwood Rd,Cincinnati,OH,45242
10607,APriori Bar and Restaurant,5953 Buford Hwy Ne,Atlanta,GA,30340
10608,Red Martini,3179 Peachtree Road,Atlanta,GA,30305
10609,The Flavor Cafe,5631 Covington Hwy Suite A,Decatur,GA,30035
10610,Mojito Cafe,9850 Nesbit Ferry Rd,Johns Creek,GA,30022
10611,Pattaya Cafe,3455 Peachtree Industrial Blvd,Duluth,GA,30096
10612,Mediterranean Breeze,20693 Ashburn Road,Ashburn,VA,20147
10613,New York Deli,4926 Edgewood Road,College Park,MD,20740
10614,Smith Commons,1245 H Street Ne,Washington,DC,20002
10615,El Don Mexican Bar and Grill,6320 Atlanta Hwy Suite 104,Roswell,GA,30004
10616,Pizzarro,467 Florida Ave Nw,Washington,DC,20001
10617,Top Clay Pot,3492 Satellite Blvd,Duluth,GA,30096
10619,Harue Food and Cafe,3585 Peachtree Industrial Blvd,Duluth,GA,30096
10620,DCUBAN Cafe,6200 Buford Hwy Suite L,Norcross,GA,30071
10621,Hudson Grille Alpharetta,865 North Main St,Alpharetta,GA,30009
10622,Hudson Grille Tucker,2075 Northlake Pkwy,Tucker,GA,30084
10623,BGR The Burger Joint Fredrick,7810 Wormans Mill Rd G,Frederick,MD,21701
10624,Szechuan Chinese Restaurant,1721 Route 27,Somerset,NJ,8873
10625,Abbeys Real Texas BBQ,6904 Miramar Rd,San Diego,CA,92121
10626,JJ Wedding and Photography,251 09 Northern Blvd,Little Neck,NY,11362
10627,Natural Health Center,Arcadia Westfield Mall,Arcadia,CA,91007
10628,GT Garage,1625 E45Th St ,Cleveland,OH,44103
10629,SR PETRO,2008 W Center St ,Milwaukee,WI,53206
10630,Burger King  Coral Springs,10494 West Sample Road,Pompano Beach,FL,33065
10631,Burger King  Coral Springs,9373 West Atlantic Boulevard,Pompano Beach,FL,33071
10632,Burger King  Coral Springs,Maplewood Plaza 1150 University Drive,Pompano Beach,FL,33071
10634,Tandoor E India,1610 State Hwy 35 South,Oakhurst,NJ,7755
10635,Musiro Korean Cuisine,2625 Old Denton,Carrollton,TX,75007
10636,Pescada,509 Ave P,Brooklyn,NY,11230
10637,Tuk Tuk Thai Take Out,4031 Dempster St,Skokie,IL,60076
10638,El Atlacatl,466 Sw 17Th Ave,Miami,FL,33135
10639,L C Asian Restaurant,47 49 Billings Rd,Quincy,MA,2171
10646,Best Wingers,711 2Nd Ave,New York,NY,10016
10647,Detroit Coney Grill  Phoenix,16 W Adams St,Phoenix,AZ,85003
10648,La Femme Du Fromage,3201 Corrine Dr,Orlando,FL,32803
10649,Redlight Redlight,2810 Corrine Dr,Orlando,FL,32803
10650,Rafic s Falafel,6905 Schaefer Rd,Dearborn,MI,48126
10652,3E Taste Of Thai,34 16 Broadway,Astoria,NY,11106
10653,Sweet Tree,42757 Woodward Ave,Bloomfield Hills,MI,48304
10654,Tessers Deli,7491 North Federal Highway Boca Valley Plaza,Boca Raton,FL,33487
10655,Juniper on the Water,1975 S Ocean Dr,Hallandale,FL,33009
10656,Penguin Ice Cream,143B Hester Street,New York,NY,10002
10657,Bisuteki Japanese Steakhouse,407 Squire Road,Revere,MA,2151
10658,Pinot s Palette Estero,23050 Via Villagio Ste 109,Estero,FL,33928
10659,Amis,9824 Manchester Rd,Saint Louis,MO,63119
10660,J J Asian Bistro,1706 Rock Prairie Rd W,College Station,TX,77845
10661,Yus Bistro,658 S Rt 59,Naperville,IL,60540
10662,Rice  Curry Cuisine,712 7Th Street,Galveston,TX,77550
10663,Ephesus Mediterranean  Turkish Cuisine,514 Park Blvd,Massapequa Park,NY,11762
10664,Nile Ethiopian Restaurant,2130 Magazine St,New Orleans,LA,70130
10665,Brothers Restaurant,404 Harvard St ,Brookline,MA,2446
10666,CCs Cafe,"41 Monroe St 	",New York,NY,10002
10667,Emerald City Fish  Chips,3756 Rainier Ave S,Seattle,WA,98144
10668,Khana Peena  College,5316 College Ave,Oakland,CA,94618
10673,Sea Monster Lounge,2202 N 45Th St,Seattle,WA,98103
10674,Sud Italia Ristorante,2347 University Blvd,Houston,TX,77005
10675,Twisterz Frozen Dessert,1229 E Mckellips Rd  108,Mesa,AZ,85203
10676,Double D s BBQ,634 Barnes Blvd  110,Rockledge,FL,32955
10677,East Bay Spice Company,2134 Oxford St,Berkeley,CA,94720
10678,Rocky s Pizza Restaurant,10310 Wilmington Dr,Huntersville,NC,28078
10679,The Phoenix Ale Brewery,3002 E Washington St,Phoenix,AZ,85034
10680,The Pearl,3000 Old Alabama Rd Ste 1,Roswell,GA,30076
10681,Blondies Pizza,2340 Telegraph Ave,Berkeley,CA,94704
10682,Tatore Ristorante Italiano,15180 Biscayne Blvd,North Miami Beach,FL,33160
10683,Golden Eagle Bar  Grill,1447 N Rochester Rd,Rochester,MI,48307
10684,Pazza Bistro,7210 Us Highway 19 N,Pinellas Park,FL,33781
10685,2941 Street Food,87 W Auburn Rd,Rochester,MI,48307
10686,Cheen Huaye,15400 Biscayne Blvd,North Miami Beach,FL,33160
10687,5 Girls Burgers,2659 East Atlantic Ave,Pompano Beach,FL,33062
10688,Italian 101,17082 Collins Ave,North Miami Beach,FL,33160
10689,Hair mode,42 35 Main Street,Flushing,NY,11355
10690,Red Pepper Restaurant,1083 Main Street,Worcester,MA,1603
10691,MISSION CLEANER,512 S Garfield Ave,Alhambra,CA,91801
10692,BBQ KING,5650 W Spring Mountain Rd  A,Las Vegas,NV,89146
10693,China Express,3932 D West Market St ,Greensboro,NC,27407
10694,Chilli Garden,41 Riverside Avenue ,Medford,MA,2155
10695,Bisuteki Tokyo Japanese Steak House  Cambridge MA,777 Memorial Drive,Cambridge,MA,2139
10696,SUSHI ZEN,2457 N Harrison St,Arlington,VA,22207
10697,Myung Ga Won,4400 Rittiman Rd,San Antonio,TX,78218
10698,Small House Chinese Restaurant Yummy City,1120 W University Ave,Gainesville,FL,32601
10699,Thai 99 II Restaurant,915 Gardens Blvd,Charlottesville,VA,22901
10700,Miss Saigon Cafe,932 Melbourne Rd,Hurst,TX,76053
10701,Una Mas Mexican Grill,224 Redwood Shores Pkwy,Redwood City,CA,94065
10702,Fazolis,13201 Fm 620 N,Austin,TX,78727
10703,Delhi Darbar,62B Airport Blvd,Morrisville,NC,27560
10704,Asian Fusion,44260 Ice Rink Plz Ste 106,Ashburn,VA,20147
10705,Khana Peena  Solano,1889 Solano Ave,Berkeley,CA,94707
10706,La Patisserie,627 N Main St ,Mooresville,NC,28115
10707,La Patisserie Bakery,631 Brawley School Rd Ste 406,Mooresville,NC,28117
10708,Rookies Neighborhood Sports Grill,3668 W Anthem Way Ste B132,Phoenix,AZ,85086
10709,The Greenwood Village Cafe,8923 E Union Ave,Englewood,CO,80111
10710,Mediterranean Delight,726 South Hill Street,Los Angeles,CA,90014
10712,Kai Bistro,1057 MacArthur Blvd,San Leandro,CA,94577
10713,My Deli and Cafe,860 East Main Street,Purcellville,VA,20132
10714,C Era Una Volta,1332 Park St,Alameda,CA,94501
10715,Tacos on the Run,2905 Jordan CT,Alpharetta,GA,30022
10716,Mango s Caribbean Restaurant,180 Auburn Ave NE,Atlanta,GA,30303
10717,Lonni s sandwiches,1153 Main Street,Dunedin,FL,34698
10718,Mediterranean Efes Bistro Fish  Grill House,8903 Galdes Rd D7,Boca Raton,FL,33434
10719,La Montarana,18851 NE 29th Ave,Miami,FL,33180
10720,Old Cape Cod Kitchen,1479 Belcher Road S,Largo,FL,33771
10721,Terra Mar Brazilian Steakhouse,6715 49th Street N,Pinellas Park,FL,33781
10722,Asia One,1355 S Main St,Fall River,MA,2724
10723,Knapp St Pizza,2159 Knapp Street,Brooklyn,NY,11229
10724,Ancient Kabob House,1632 Carl D Silver Pkwy,Fredericksburg,VA,22401
10725,Aladdins Cafe,111 W Market St,New Albany,IN,47150
10726,Hachi,4275 County Line Rd,Chalfont,PA,18914
10727,The Redhead,349 E 13th St,New York,NY,10003
10728,Austin s Habibi,817 W 5th St,Austin,TX,78703
10729,B OK Locksmith,74 794 42nd Ave Unit  10,Palm Desert,CA,92260
10731,Jing Fong Restaurant,20 Elizabeth Street,New York,NY,10013
10732,House of Bites,7094 Miramar Rd,San Diego,CA,92121
10733,Oriental City,601 Donald Lynch Blvd Unit 4220,Marlborough,MA,1752
10734,Dragon Express,2834 A Randleman Rd,Greensboro,NC,27406
10735,Sea Bar Restaurant,140 N 10th St ,Philadelphia,PA,19107
10736,Kabab Bites,369 Broome St,New York,NY,10013
10737,Tulips Indian Cuisine,9311 Jw Clay Blvd,Charlotte,NC,28262
10738,Cafe Dominican,4650 Jimmy Carter Blvd Ste 119,Norcross,GA,30093
10739,North Beach Pizza,1598 University Avenue,Berkeley,CA,94703
10740,Himalayan Tandoori and Curry,1645 Solano Ave,Berkeley,CA,94707
10742,El Patio Mexican Restaurant,693 N 13 St,San Jose,CA,95112
10743,Spice of Thai,690 Holcomb Bridge Rd,Roswell,GA,30076
10744,Old Ironsides Cafe,4655 Old Ironsides Dr,Santa Clara,CA,95054
10745,New York Pizza San Jose,1190 Hillsdale Ave,San Jose,CA,95118
10746,La Estretllita Cafe,446 E 12th St,Oakland,CA,94606
10747,Quetzal Taqueria and Antojitos,3045 Cutting Blvd,Richmond,CA,94804
10748,Spettro,3355 Lakeshore Ave,Oakland,CA,94610
10749,Urfa Tomato Kabob,467 Florida Ave NW,Washington,DC,20001
10750,Yorkshire Restaurant,7537 Centreville Rd,Manassas,VA,20111
10751,Nicos Hideaway,1508 Walnut Street,Berkeley,CA,94709
10752,Ethiopia Restaurant,2955 Telegraph Ave,Berkeley,CA,94705
10753,Pyramids Restaurant and Grill,3100 High St,Oakland,CA,94619
10754,Big Mommas Kitchen,4929 International Boulevard,Oakland,CA,94601
10755,Tony and Angelo s White House Pizza,1501 Philadelphia Ave,Ocean City,MD,21842
10756,Joey Thai,338 Bloomfield Ave,Montclair,NJ,7042
10757,Pho Xe Lua,1021 W Argyle St,Chicago,IL,60640
10758,Hello Sweetie,2200 S Austin Ave,Georgetown,TX,78626
10759,Grace Noodle,1823 E Main St,Richmond,VA,23223
10760,Va Bene Italian Restaurant,4647 E Chandler Blvd,Phoenix,AZ,85048
10761,Pour Sports Bar  Grill,832 SE Grand Ave,Portland,OR,97214
10762,Maria Bonita s Cantina  Grill,7741 Colony Rd,Charlotte,NC,28226
10763,Sidewinder Subs,1455 W Elliott Rd Ste 103,Gilbert,AZ,85233
10764,Saffron Indian Cuisine  Charlotte,2135  B Ayrsley Town Blvd,Charlotte,NC,28273
10765,Tony s Famous New York Pizza,1904 S Patrick Dr,Satellite Beach,FL,32937
10766,Estrellita Mexican Bistro and Cantina,971 N San Antonio Rd,Los Altos,CA,94022
10767,Veggie Lee,25036 Hesperian Blvd,Hayward,CA,94545
10768,Erik s Delicafe,2 N Market St Ste 105,San Jose,CA,95113
10769,The Restaurant Westover Golf Club,401 South Schuykill Ave,Norristown,PA,19403
10770,Chicken Coop Colombian Restaurant,159 Rockaway Ave,Valley Stream,NY,11580
10771,Taste of India,498 University Blvd,Harrisonburg,VA,22801
10772,Thanh Thanh 3,9 Simon St,Nashua,NH,3060
10773,Try It Raw,213 E Maple Rd,Birmingham,MI,48009
10774,Cinco De Mayo,2428 Lemoine Ave,Fort Lee,NJ,7024
10775,Persis Indian Grill,3800 Quakerbridge Rd,Trenton,NJ,8619
10776,Helen Asian Kitchen,1070 E Dublin Granville Rd,Columbus,OH,43229
10778,Rocco s Cucina  Bar,450 Commercial St,Boston,MA,2109
10779,Bushnell Craft,8461 164th Ave Ne,Redmond,WA,98052
10780,Gumbas Italian Restaurant,176 S Murphy Ave,Sunnyvale,CA,94086
10781,Shami Restaurant,16490 E 14th St,San Leandro,CA,94578
10782,Thai Recipe Cuisine,1715 Lundy Ave Ste 180,San Jose,CA,95131
10783,Piccola Italia,815 Elm St,Manchester,NH,3101
10784,Giulianos Italian Restaurant,1923 Cordova Rd,Fort Lauderdale,FL,33316
10785,Christine Lees,901 S Federal Hwy,Hallandale,FL,33009
10786,The Tea Corner Cafe at Oxford Hall,233 Bridge Street,New Cumberland,PA,17070
10787,Dosha Ayurveda Cafe  Juice Bar,139 NE 1st Ave,Hallandale,FL,33009
10788,Jade Bistro Asian Cuisine,6139 Park Boulevard,Pinellas Park,FL,33781
10789,Sakana of Tokyo,5252 E 82nd St,Indianapolis,IN,46250
10790,China Cafe,2408 A Spring Garden Street,Greensboro,NC,27403
10791,Angora Cafe,1024 Commonwealth Ave,Boston,MA,2215
10794,Latin Bites,419 E 70Th St,New York,NY,10021
10795,La Piazza Italian Restaurant and Pizzeria,2330 N Wickham Rd Ste15,Melbourne,FL,32935
10796,Bonfires Bar  Grill,1340 Alafaya Trl,Oviedo,FL,32765
10797,Hang Ten Boiler Alameda,2306A Encinal Avenue,Alameda,CA,94501
10798,Hang Ten Boiler Hayward,303 Southland Mall,Hayward,CA,94545
10799,Raphaels Shutter Cafe,10064 San Pablo Ave,El Cerrito,CA,94530
10800,Red Tomato Pizza House,2017 University Ave,Berkeley,CA,94704
10801,Good Fortune Cafe,237 A Kentlands Boulevard,Gaithersburg,MD,20878
10802,Countryside Cafe,28050 US 19 North Suite 104,Clearwater,FL,33761
10803,Ted s Bar  Grill,7300 Allentown Blvd,Harrisburg,PA,17112
10804,Laura s Cuban Cuisine,2723 Hollywood Blvd,Hollywood,FL,33020
10805,The Boarding,813 East Las Olas Blvd,Fort Lauderdale,FL,33301
10806,Lique Miami,3957 NE 163rd St,North Miami Beach,FL,33160
10807,Tacos Flacos  Cantina,35114 US Hwy 19 North,Palm Harbor,FL,34684
10808,Lettuce  Tomato,17010 W Dixie Hwy,North Miami Beach,FL,33160
10809,Sansushito,121 N 20th Ave,Hollywood,FL,33020
10810,Fish s Wild  Redwood City,855 Middlefield Rd,Redwood City,CA,94063
10811,K60 Japanese Steak House Green Tea Japanese Restaurant,2811 Middle Country Rd,Lake Grove,NY,11755
10812,Mango Tree Thai Bistro,914 Main St,Houston,TX,77002
10813,Carmello s,400 Twenty Ninth Pl Ct,Charlottesville,VA,22901
10814,Smile Crepes and Ice Cream,3803 Main,Flushing,NY,11354
10815,Love to Go,307 S Mission Dr,San Gabriel,CA,91776
10816,Twinkle Lighting Inc ,131 14 40RD,Flushing,NY,11354
10817,China Pot King,1558 New Ave,San Gabriel,CA,91776
10818,Fainting Goat Gelato  Fremont Ave,3415 Fremont Ave,Seattle,WA,98103
10819,Fainting Goat Gelato,1903 N 45Th St,Seattle,WA,98103
10820,Fujo,301 S College St Ste 100,Charlotte,NC,28202
10821,Bella Luna,14175 W Indian School Rd Ste A4,Goodyear,AZ,85395
10822,Fired Up Coal Oven Pizzeria,195 Malabar Rd Nw,Palm Bay,FL,32907
10823,Red Pepper Pizza,368 MacArthur Blvd,San Leandro,CA,94577
10824,Azit Pub,4390 Telegraph Ave Ste A,Oakland,CA,94609
10825,Sheba Dining Ethiopian Fusion,371 13th St,Oakland,CA,94612
10826,Yoshio Sushi,10889 San Pablo Ave,El Cerrito,CA,94530
10827,Wine and Waffles,1505 Park St,Alameda,CA,94501
10828,Crescent Cuisine,833 W El Camino Real,Sunnyvale,CA,94087
10829,Penuche s Manchester,96 Hanover St,Manchester,NH,3101
10830,1989RI,190 Thames St,Newport,RI,2840
10831,Cedar Cliff Pizza,1055 Carlisle Road,Camp Hill,PA,17011
10832,Scotty s Big Dawgs Restaurant and Pub,823 West Main Rd,Middletown,RI,2842
10833,Pork Belly Cafe,7009 Lenox Village Dr Suite 109,Nashville,TN,37211
10834,Pakiza Halal Restaurant Himchuli Restaurant,201 Main St,Pleasanton,CA,94566
10835,Baja Fresh Mexican Grill,518 S Brookhurst St Suite 5,Anaheim,CA,92804
10836,Thida Thai,721 President Pl,Smyrna,TN,37167
10837,Farfalle,333 SE 2nd St,Miami,FL,33131
10838,Sakura  Bichara Blvd,1104 Bichara Blvd,Lady Lake,FL,32159
10839,Sakura  Colony Blvd,265 Colony Blvd,The Villages,FL,32162
10840,Sarahs Kabob Shop,5553 West Market St,Greensboro,NC,27409
10841,Ke Lai Qin,133 35 Roosevelt Ave,Flushing,NY,11354
10842,XIANG WEI XUAN,6000 Spring Mountain RD  2B,Las Vegas,NV,89146
10843,Due Amici,3100 Alafaya Trail,Oviedo,FL,32765
10844,Over the Moon Creamery  Embarcadero,Embarcadero 4,San Francisco,CA,94111
10845,Over the Moon Creamery  Chestnut,2144 Chestnut St,San Francisco,CA,94109
10847,Beantown Taqueria,245 Massachusetts Ave,Cambridge,MA,2139
10848,Tropical Cabana Restaurant,1875 Central Florida Pkwy,Orlando,FL,32837
10849,Cone Zone,2040 State Route 33,Neptune,NJ,7753
10850,Mmm Coffee,910 Sante Fe Dr Studio 6,Denver,CO,80204
10851,Brooklyn South Pizzeria,19400 Jetton Rd  201,Cornelius,NC,28031
10852,Angelinas Trattoria,1092 Post Rd E,Westport,CT,6880
10853,Kristophers Sports Bar,250 N Trade St,Matthews,NC,28105
10854,The Peppy Bistro,2611 Edgewater Dr,Orlando,FL,32804
10855,Mainstreet Pub,705 E New Haven Ave,Melbourne,FL,32901
10856,Gio s BBQ Bar and Grill,4857 N Damen Ave,Chicago,IL,60630
10857,The Pizza Shop Enola,299 W Shady Lane,Enola,PA,17025
10858,Upper Dublin Bagel Squad,1650 Limeklin Pike Unit B 19,Dresher,PA,19025
10859,Passage Irish Bar and Kitchen,40 11 30th Ave,Astoria,NY,11103
10860,Skinny s Pizzeria,168 Armory St,Manchester,NH,3102
10861,Humpty s Dumplings,277 N Keswick ave,Glenside,PA,19038
10862,Say Cheese,45 Weybossett Wt,Providence,RI,2903
10863,Sunshine Family Restaurant,4141 Linglestown Road,Harrisburg,PA,17112
10864,The Classic Cafe,865 Westminister St,Providence,RI,2903
10865,The Classic Cafe,347 Waterman Ave,Smithfield,RI,2917
10866,Bruno s,9800 Germantown Pike,Lafayette Hill,PA,19444
10867,Nisi,3330 E Oakland Park,Pompano Beach,FL,33073
10868,Takhrai,12790 3 Bartram Park Blvd,Jacksonville,FL,32258
10869,Maharaja Palace,2113 Frederick Douglass Blvd,New York,NY,10026
10870,Affina,6TH And San Carlos St,Carmel,CA,93923
10871,Mizu Japanese Sushi and Steakhouse,2276 Warwick Ave,Warwick,RI,2889
10872,Cajun Seafood House,2531 Rocky Ridge Rd Ste 107,Birmingham,AL,35243
10873,SPA Nails,3463 Edgewater Drive Suite A,Orlando,FL,32804
10874,RADA boutique,486 Main St Melrose Ma 02176,Melrose,MA,2176
10875,Harbor Villa Restaurant,5238 Diamond Heights Blvd,San Francisco,CA,94131
10876,CHINA TASTE,155 ROLLINS AVENUE,Rockville,MD,20852
10877,Asaka Japanese  Asian Cuisin,434 Washington Street,Norwell,MA,2061
10878,Air Affair Blow Dry Bar,10 S Adams Dr Suite 3 2nd floor,Sarasota,FL,34236
10879,NOVA FILER,19295 E WALNUT DR N,Rowland Heights,CA,91748
10880,C L Auto Services,141 Johnson Ave,Hackensack,NJ,7601
10881,Xing xing express,140 31 cherry ave,Flushing,NY,11355
10882,Ming Jie House,47 Main street,Walden,NY,12586
10883,RANDI S CLEANERS,300 JERICHO TPKE,Mineola,NY,11501
10884,Taste of China,27626 Middlebelt Road,Farmington,MI,48334
10885,Victory Karate and After School,740 E 233 St 2nd FL,Bronx,NY,10466
10886,P C D America Training Center,857 60ST 1B,Brooklyn,NY,11220
10887,Hanami Brasserie,1220 9th Ave,San Francisco,CA,94122
10888,Taco John s,7253 Vista Drive,West Des Moines,IA,50266
10889,Butter Chicken Indian Cuisine,1341 Howell Branch Rd,Winter Park,FL,32789
10890,Hwy 55 Burgers Shakes  Fries,8451 Davis Lake Pkwy,Charlotte,NC,28269
10891,El Sombrero Restaurant,1100 S Elmhurst Rd,Mount Prospect,IL,60056
10892,Greenwich Salad Co,375 Greenwich Ave,Greenwich,CT,6830
10893,Aladinos Pizza,1324 Sunset Dr,Antioch,CA,94509
10894,Lenny s Sub Shop,7808 S Tryon St Ste H,Charlotte,NC,28273
10895,La Estrellita,100 W Main St,Avalon,TX,76623
10896,Cafe Stoked,1215 San Elijo Rd,San Marcos,CA,92078
10897,The Fields Bar  Grill,1139 Nw 11Th Ave,Portland,OR,97209
10898,The Organic Grill,123 1St Ave,New York,NY,10003
10899,Pellegrinos Italian Kitchen,205 Cleveland Ave Se,Seattle,WA,98105
10900,Dragon Gate Bar and Grille,300 Broadway,Oakland,CA,94607
10901,Roobaru,36665 Cedar Blvd,Newark,CA,94560
10902,Pizza Moda,1401 University Ave ,Berkeley,CA,94702
10903,Plearn Thai Restaurant,1923 University Ave,Berkeley,CA,94704
10904,The Hayward Ranch,22877 Mission Blvd,Hayward,CA,94541
10905,Mama Papa Lithuania Restaurant and Tea House,1241 Park St,Alameda,CA,94501
10906,El Paso Cafe,1407 El Camino Real,Mountain View,CA,94040
10907,El Porton  Roswell,11190 Alpharetta Hwy,Norcross,GA,30092
10908,El Porton  Midway,4902 Atlanta Hwy ,Alpharetta,GA,30004
10909,El Porton  Marietta,910 Marietta HWY,Roswell,GA,30075
10910,El Porton  Jones Bridge,11950 Jones Bridge Rd ,Alpharetta,GA,30005
10911,El Porton  Duluth,2640 Old Peachtree Rd NW,Duluth,GA,30096
10912,Lotus Thai Cuisine,4133 Piedmont Avenue,Oakland,CA,94611
10913,Cana Cuban Parlor,530 Lake Park Ave,Oakland,CA,94610
10914,Cana Cuban Cafe,532 Lake Park Ave,Oakland,CA,94610
10915,Sal s Pizza,533 E Campbell Ave ,Campbell,CA,95008
10916,Straw Hat Pizza  Alameda,901 Marina Village Parkway,Alameda,CA,94501
10917,Velocity Wings  Marketplace,25360 Eastern Marketplace Plaza  150,Chantilly,VA,20152
10918,Velocity Five  Sterling,20789 Great Falls Plaza,Sterling,VA,20165
10919,Creasian,1269 MacArthur Blvd ,San Leandro,CA,94577
10920,Ganesha Indian Cuisine,1074 Kiely Blvd ,Santa Clara,CA,95051
10921,Tia Juana,901 E Duane Ave,Sunnyvale,CA,94086
10922,Speedy s Tacos,929 E Duane Ave,Sunnyvale,CA,94085
10923,Las Cazuelas,55 Race Street,San Jose,CA,95126
10926,Rose s Bistro Off Main,6238 Grand Boulevard,New Port Richey,FL,34652
10927,Mi Casa Dominican Restaurant,177 West Merrick Rd ,Freeport,NY,11520
10928,Tarpon Bar  Grill,1981 N Pinellas Ave,Tarpon Springs,FL,34689
10929,MC Pizza Express,2327 Walnut Street,Harrisburg,PA,17103
10930,Plum Tomatoes Pizzeria Restaurant,228 Old Country Rd ,Mineola,NY,11501
10931,Two Cousins Pizza  Restaurant,32 Erford Road,Camp Hill,PA,17011
10932,Picasso s Tapas Restaurant,62 W Santa Clara,San Jose,CA,95113
10933,Gandhi s Indian Restaurant,4075 State RD 7 Suite F 2,Lake Worth,FL,33449
10934,Dragon Star Chinese Restaurant,7757 Lake Worth Blvd,Lake Worth,FL,33467
10935,Rue Bis,95 South St ,Providence,RI,2905
10936,Tre fratelli,17 summit square shopping center,Langhorne,PA,19047
10937,O Sho Sushi  Bar,1525 Smith St,North Providence,RI,2911
10938,Murphy s Homestyle,600 Bridge Street,New Cumberland,PA,17070
10939,California Grille,41 Crystal Ave,Derry,NH,3038
10940,Cedars Restaurant Authentic Lebanese Food,8999 Park Blvd,Seminole,FL,33777
10941,The Lion  Rose British Restaurant  Pub,8211 Agora Parkway  112,Schertz,TX,78154
10942,The Lion  Rose Restaurant  Pub,17627 La Cantera,San Antonio,TX,78257
10943,The Lion  Rose British Restaurant  Pub,5148 Broadway,San Antonio,TX,78209
10944,The Lion  Rose British Restaurant  Pub,842 NW Loop 410,San Antonio,TX,78216
10945,Tandoor Fine Indian Cuisine,3130 Mapleleaf Dr,Lexington,KY,40509
10946,Tangra Biryani Point Asian Flavour Indian Restaurant,1869 Dixwell Ave,Hamden,CT,6514
10947,New Taste of India,1812 Jackson St,La Crosse,WI,54601
10948,Awash Ethiopian Restaurant,242 Court St,Brooklyn,NY,11201
10949,pleasure ocean resturant,1655 s azusa ave  c,Hacienda Heights,CA,91745
10950,Chocolate Falls  Chocolate Gift Shop,N88 W16559 Main St,Menomonee Falls,WI,53051
10951,Famous Sichuan,10 Pell street New York ny 10013,New York,NY,10013
10952,Chuan Lu Garden,1101 E Colonial Dr,Orlando,FL,32803
10953,shanghai restaurant,27725 Jefferson Ave Ste 104,Temecula,CA,92590
10954,MiStyles Salon,265 N Federal  144,Chandler,AZ,85226
10955,Tip Toe Salon,26 n middletown rd ,Nanuet,NY,10954
10956,Legend West Village,82 W 3rd st NY NY 10012,New York,NY,10012
10957,Fall Brook Child Development Center,12 Crossroads Drive,East Freetown,MA,2717
10958,HI BEAR ICE CREAM ROLL,147 BRIGHTON AVE,Allston,MA,2134
10959,Oishi Sushi,623 SW 152nd St,Seattle,WA,98166
10960,Miss Saigon Cafe,932 Melbourne Rd,Hurst,TX,76053
10961,Miss Q Fashion,227 W Valley Buld 188 A,San Gabriel,CA,91776
10962,Iron Chef,435 Newbury Street,Danvers,MA,1923
10964,BlueTravel,17520 Castleton St  212B,Rowland Heights,CA,91748
10965,Fox s Pizza Den  Greer,421 The Parkway,Greer,SC,29650
10966,SnowFlake Tea House,2180 Pleasant Hill Rd Suite A8,Duluth,GA,30096
10967,FT Construction  Roofing,2929 S Decatur Blvd,Las Vegas,NV,89102
10968,Joy s Hallmark,17 Meadowview Shopping Center,Kankakee,IL,60901
10969,Goulet Glass Inc dba Sullivan s Premier Glass,12 Loomis Street,Winsted,CT,6098
10973,Mama Mias Restaurant,200 E Hamilton Ave,Campbell,CA,95008
10974,Rendezvous,1111 Solano Ave,Albany,CA,94706
10975,Noodles Fresh,10042 San Pablo Ave,El Cerrito,CA,94530
10976,Snowdonia,34 55 32nd Street,Astoria,NY,11106
10977,Masa Noodle Bar,864 Blossom Hill Rd Suite A,San Jose,CA,95123
10978,Via Mia Pizza  Camden,5251 Camden Ave,San Jose,CA,95124
10979,Rhea s Kitchen,120 West Main Rd,Newport,RI,2840
10980,Tam s Cuisine of China,494 Manor Plz,Pacifica,CA,94044
10981,Queen for a day hair salon and spa,6 Shady Lane,Salem,NH,3079
10982,Gourmet City,5541 Clairemont Blvd ,San Diego,CA,92117
10983,Alexandros Restaurant,1060 Route 25A,Mount Sinai,NY,11766
10984,Banning Donuts,584 w Ramsey st,Banning,CA,92220
10985,Fortune House  Chinese Cuisine,8150 N MacArthur Blvd  Suite 190,Irving,TX,75063
10986,Enjoy Nail  Spa 3 INC,4023 Main St FL2,Flushing,NY,11354
10987,Secret Recipe Asian Bistro  Plano,2304 Coit Road suite 620,Plano,TX,75075
10988,TLKK Cleaner,316 E 93rd St ,New York,NY,10128
10989,Secret Recipe Asian Bistro  Carrollton,1404 W Hebron Pkwy suite 103,Carrollton,TX,75010
10990,Sushi House,214 N El Camino Real,Encinitas,CA,92024
10991,Simpli Sushi  Oyster Bar,18222 Gale Ave  A City of Industry CA,Rowland Heights,CA,91748
10992,Party House Liquor,1817 S Catalina Ave ,Redondo Beach,CA,90277
10993,Lao Cheng Du,37 17 Prince street Unit A,Flushing,NY,11354
10994,Mixers Ice Cream  Boba,5625 S Rainbow Blvd Unit D,Las Vegas,NV,89118
10995,Great Wall of China,6666 Carmel Road,Charlotte,NC,28226
10996,kk beauty skincare,769 50th street,Brooklyn,NY,11220
10997,Olympus Pizza,42 allenstown rd,Suncook,NH,3275
10999,Chubby Cattle Hotpot House,3400 S Jones Blvd Ste 15,Las Vegas,NV,89146
11001,Your Pie,1625 Main St Ste B,Houston,TX,77002
11002,Woodbridge Deli  Catering,575 Amboy Ave,Woodbridge,NJ,7095
11003,Lago,230 Washington Pl,North Brunswick,NJ,8902
11004,Duff s Doggz,12047 Carmel Mountain Rd,San Diego,CA,92128
11005,Sal s Deli  Bakery,348 Anderson Ave,Cliffside Park,NJ,7010
11006,Chengdu Style Restaurant,2600 Bancroft Way,Berkeley,CA,94704
11007,Sichuan Style Restaurant,1699 Solano Ave,Berkeley,CA,94707
11008,Bada Bing! Bagels,719 E Main Street,Purcellville,VA,20132
11009,3000 Broadway,3000 Broadway,Oakland,CA,94611
11010,44 Restaurant and Bar,3290 Adeline St,Berkeley,CA,94703
11011,Tandoori Nite,2160 University Ave ,Berkeley,CA,94704
11012,Dragon Village,642 Lincoln Avenue,Alameda,CA,94501
11013,Ruth s Buka Nigerian Restaurant,5250 Foothill Blvd,Oakland,CA,94601
11014,House of Curries  College Ave,2984 College Avenue,Berkeley,CA,94705
11016,Tambo,1414 Jefferson Street,Oakland,CA,94612
11017,Vincenzo s Pizza,6301 Grayson Road,Harrisburg,PA,17111
11018,Mezbaan BBQ Grill,2356 Street Rd,Bensalem,PA,19020
11019,Bodeli Sushi Restaurant,330 Mayfield Dr,Franklin,TN,37067
11020,Nancy s Diner,25 Canal St,Nashua,NH,3063
11021,Black Horse Grille,101 E Main Street,Middletown,PA,17057
11022,Mess Hall Canteen and Cafe,2305 Computer Ave,Willow Grove,PA,19090
11023,The Burger Mill,278 Route 101,Amherst,NH,3031
11024,Squirrel s Nest Cafe,826 W Bridge Street,Morrisville,PA,19067
11025,The Pub 2900,2900 Street Rd,Bensalem,PA,19020
11026,Kegel s Inn,5901 W National Ave,Milwaukee,WI,53214
11027,Kussifay Argentinean Restaurant,2050 Hollywood Blvd,Hollywood,FL,33020
11028,Taste of Curry,10136 U S Highway 19,Port Richey,FL,34668
11029,Jasmine Tea House,3253 Mission St,San Francisco,CA,94110
11030,Saffron Indian Cuisine,1321 C Rockville Pike,Rockville,MD,20852
11031,Casablanca,2333 Washtenaw Rd,Ypsilanti,MI,48197
11032,Pho Bon,10511 Jones Rd Ste G,Houston,TX,77065
11033,Zen Asian Bistro,128 Main St,Bangor,ME,4401
11034,Don Pollo,4106 Greenpoint Ave,Sunnyside,NY,11104
11035,Hello Sushi,1301 S Harbor Blvd,Fullerton,CA,92832
11036,Grasshopper Vegetarian Restaurant,1 N Beacon St,Allston,MA,2134
11037,New Life Bodywork  Foot Massage,89 Bass Ave  4 Gloucester MA 01930,Gloucester,MA,1930
11038,H1 Nails  Spa,530 kings hwy cutoff,Fairfield,CT,6824
11039,KidzFusion,2710 White Horse Rd,Greenville,SC,29611
11040,Bead Bush Studio,43 Mt Delight Rd,Deerfield,NH,3037
11041,Russian Gold Jewelers,8233 W Brown Deer Rd,Milwaukee,WI,53223
11042,Valvoline Express care Performance Tire,240 Old Hartford Road,Colchester,CT,6415
11043,Dynasty Buffet,427 Baltimore Pike,Springfield,PA,19064
11044,Gian Wine  Liquor,2067 Merrick RD,Merrick,NY,11566
11045,iPastries Specialty Bakery,69620 Hwy 111,Rancho Mirage,CA,92270
11046,Ypbor Yan Sichuan Cuisine,4905 Washtenaw Ave ,Ann Arbor,MI,48108
11047,Beu beauty salon,36 32 union st 2fl,Flushing,NY,11354
11048,China Buffet,411 Chestnut St,Atlantic,IA,50022
11049,Allstar wine spirit,24812 Northern Blvd Ste 1A little Neck NY 11362,Little Neck,NY,11362
11050,MING PLACE BISTRO,5715 Lemmon Ave Suite 3 Dallas TX 75209,Dallas,TX,75209
11051,Masala Kraft Cafe,206 East Hartsdale,Hartsdale,NY,10530
11052,Chamsae Bistro,185 Jarvis Ave ,Newark,CA,94560
11053,New York Pizza and Pasta,2150 Washington Ave ,San Leandro,CA,94577
11054,House of Curries  Solano,1497 Solano Ave ,Albany,CA,94706
11055,Taste of the Himalayas,2633 Bridgeway,Sausalito,CA,94965
11056,Himalayan Flavors,1585 University Ave,Sausalito,CA,94965
11058,Emzy Sushi Bar  Asian Kitchen,550 S Tryon St Ste 160,Charlotte,NC,28202
11059,Bliss Cafe,The Network Shopping Center 778 Higuera St,San Luis Obispo,CA,93401
11060,Hot Spot,2321 Santa Clara Ave Alameda CA 94501,Alameda,CA,94501
11061,Finfine Restaurant,2556 Telegraph Ave ,Berkeley,CA,94704
11062,Chutney s  Mass Ave,173 Mass Ave ,Boston,MA,2115
11063,Taj India Palace,8320 Lincoln Blvd,Los Angeles,CA,90045
11064,Chutney s  Harvard Square,36 JFK St ,Cambridge,MA,2138
11065,The Brick Pig s House,5973 Shattuck Ave,Oakland,CA,94609
11066,Addis Ethiopian Restaurant ,6100 Telegraph Ave ,Oakland,CA,94609
11067,Julien s Breakfast Nook,150 Bridge St,Manchester,NH,3104
11068,Our Place,2901 North Federal Highway,Boca Raton,FL,33431
11069,Captain Don s,421 Friendship Road,Harrisburg,PA,17111
11070,Betty s Soul Food Restaurant,601 NW 22nd Rd,Fort Lauderdale,FL,33311
11071,Judy s Cheese  Wine Cafe,802 North Dixie Highway,Lake Worth,FL,33462
11072,O Brien s Sports Bar,118 Main St,Nashua,NH,3060
11073,Becky s BBQ,82 East Main Rd ,Middletown,RI,2842
11074,Brooklyn s Original Pizza,3025 South Federal Highway,Delray Beach,FL,33483
11075,Acqua Trattoria,3565 NE 207th Street,Miami,FL,33180
11076,Pump Sushi Thai Cuisine,222 Commercial Blvd,Fort Lauderdale,FL,33308
11077,Carlisle Pizza  Fried Chicken,204 North Hanover Street,Carlisle,PA,17013
11078,Burger  Chicken Shack,5756 Okeechobee Blvd,West Palm Beach,FL,33417
11079,Extreme Pizza,7340 N Academy Blvd,Colorado Springs,CO,80920
11080,Guadalajara Mexican Cuisine,14861 Metcalf Ave,Overland Park,KS,66223
11081,GW Grill,2139 Hudson Terrace,Fort Lee,NJ,7024
11082,Jerrys Liquor Store,2923 Wilshire Blvd,Santa Monica,CA,90403
11083,Mezza Mediterranean Grille Zakis Mediterranean Grille,9773 East 116th St,Fishers,IN,46037
11084,River Tree Bistro,16350 Blanco Rd Ste 103,San Antonio,TX,78232
11085,Pete s Burgers Wings  Drinks,695 Town Square Blvd,Garland,TX,75040
11086,Kitchen In the Desert Cafe,73777 29 Palms Hwy,Twentynine Palms,CA,92277
11087,Beverly Hills Liquor  Wine,8318 Wilshire Blvd,Beverly Hills,CA,90211
11088,delice  sarrasin,20 christopher street,New York,NY,10014
11089,Live Global Fitness,180 Oakwood Dr,Glastonbury,CT,6033
11090,Fuji buffet green acres Inc,1061 green acres mall valley stream ny 11581,Valley Stream,NY,11581
11091,XIN XIN BEAUTY WORLD INC,37 07 Main Street 2FL Flushing NY 11354,Flushing,NY,11354
11092,Geefitness,4723 CARPENTER AVE BX NY 10470,Bronx,NY,10470
11093,Gourmet China House,55 Beach St,Boston,MA,2111
11094,Toskana Pizzeria restaurant  Great Neck,348 Great Neck Road Great Neck NY 11021,Great Neck,NY,11021
11095,Wok Express,364 Hempstead Ave Malverne NY 11565,Malverne,NY,11565
11096,Toskana Pizzeria Restraurant Little Neck,248 25 Northern Blvd Little Neck NY 11362,Little Neck,NY,11362
11097,Healthy Life Foot Spa,3585 S Durango Dr  107,Las Vegas,NV,89147
11098,Formosan Restaurant,18846 Norwalk Blvd ,Artesia,CA,90701
11099,Toast Ballard,5615 24th Ave NW,Seattle,WA,98107
11100,Hwy 55 Burgers Shakes  Fries  Steele Creek,4847 Shopton Rd,Charlotte,NC,28278
11101,Hwy 55 Burgers Shakes  Fries  University City,5700 University Pointe Blvd ,Charlotte,NC,28262